CCSDS_OMM_VERS = 2.0
CREATION_DATE  = 
ORIGINATOR     = 

OBJECT_NAME    = DELTA 2 R/B(1)
OBJECT_ID      = 1990-008B
CENTER_NAME    = EARTH
REF_FRAME      = TEME
TIME_SYSTEM    = UTC
MEAN_ELEMENT_THEORY = SGP/SGP4

EPOCH          = 2025-12-30T19:58:53.424192
MEAN_MOTION    = 15.46917481
ECCENTRICITY   = .010746
INCLINATION    = 35.6063
RA_OF_ASC_NODE = 263.5627
ARG_OF_PERICENTER = 342.3476
MEAN_ANOMALY   = 17.3539

EPHEMERIS_TYPE = 0
CLASSIFICATION_TYPE = U
NORAD_CAT_ID   = 20453
ELEMENT_SET_NO = 999
REV_AT_EPOCH   = 91543
BSTAR          = .9698E-3
MEAN_MOTION_DOT = .63739E-3
MEAN_MOTION_DDOT = 0

CCSDS_OMM_VERS = 2.0
CREATION_DATE  = 
ORIGINATOR     = 

OBJECT_NAME    = COSMOS 2058
OBJECT_ID      = 1990-010A
CENTER_NAME    = EARTH
REF_FRAME      = TEME
TIME_SYSTEM    = UTC
MEAN_ELEMENT_THEORY = SGP/SGP4

EPOCH          = 2025-12-30T18:37:17.683104
MEAN_MOTION    = 15.10665007
ECCENTRICITY   = .0009918
INCLINATION    = 82.4715
RA_OF_ASC_NODE = 115.2909
ARG_OF_PERICENTER = 207.0538
MEAN_ANOMALY   = 153.0176

EPHEMERIS_TYPE = 0
CLASSIFICATION_TYPE = U
NORAD_CAT_ID   = 20465
ELEMENT_SET_NO = 999
REV_AT_EPOCH   = 93183
BSTAR          = .44347E-3
MEAN_MOTION_DOT = .7373E-4
MEAN_MOTION_DDOT = 0

CCSDS_OMM_VERS = 2.0
CREATION_DATE  = 
ORIGINATOR     = 

OBJECT_NAME    = SL-14 R/B
OBJECT_ID      = 1990-010B
CENTER_NAME    = EARTH
REF_FRAME      = TEME
TIME_SYSTEM    = UTC
MEAN_ELEMENT_THEORY = SGP/SGP4

EPOCH          = 2025-12-30T08:24:10.288512
MEAN_MOTION    = 14.83490476
ECCENTRICITY   = .00201693
INCLINATION    = 82.5028
RA_OF_ASC_NODE = 332.5069
ARG_OF_PERICENTER = 163.9553
MEAN_ANOMALY   = 196.2306

EPHEMERIS_TYPE = 0
CLASSIFICATION_TYPE = U
NORAD_CAT_ID   = 20466
ELEMENT_SET_NO = 999
REV_AT_EPOCH   = 91820
BSTAR          = .9797068E-4
MEAN_MOTION_DOT = .832E-5
MEAN_MOTION_DDOT = 0

CCSDS_OMM_VERS = 2.0
CREATION_DATE  = 
ORIGINATOR     = 

OBJECT_NAME    = SL-14 R/B
OBJECT_ID      = 1990-018B
CENTER_NAME    = EARTH
REF_FRAME      = TEME
TIME_SYSTEM    = UTC
MEAN_ELEMENT_THEORY = SGP/SGP4

EPOCH          = 2025-12-30T18:34:15.176064
MEAN_MOTION    = 14.82068208
ECCENTRICITY   = .0015487
INCLINATION    = 82.5220
RA_OF_ASC_NODE = 287.5103
ARG_OF_PERICENTER = 323.4447
MEAN_ANOMALY   = 36.5709

EPHEMERIS_TYPE = 0
CLASSIFICATION_TYPE = U
NORAD_CAT_ID   = 20511
ELEMENT_SET_NO = 999
REV_AT_EPOCH   = 91237
BSTAR          = .10142E-3
MEAN_MOTION_DOT = .83E-5
MEAN_MOTION_DDOT = 0

CCSDS_OMM_VERS = 2.0
CREATION_DATE  = 
ORIGINATOR     = 

OBJECT_NAME    = HST
OBJECT_ID      = 1990-037B
CENTER_NAME    = EARTH
REF_FRAME      = TEME
TIME_SYSTEM    = UTC
MEAN_ELEMENT_THEORY = SGP/SGP4

EPOCH          = 2025-12-30T18:01:55.074432
MEAN_MOTION    = 15.28295938
ECCENTRICITY   = .0002619
INCLINATION    = 28.4652
RA_OF_ASC_NODE = 149.8672
ARG_OF_PERICENTER = 74.6376
MEAN_ANOMALY   = 285.4508

EPHEMERIS_TYPE = 0
CLASSIFICATION_TYPE = U
NORAD_CAT_ID   = 20580
ELEMENT_SET_NO = 999
REV_AT_EPOCH   = 76275
BSTAR          = .35028E-3
MEAN_MOTION_DOT = .10169E-3
MEAN_MOTION_DDOT = 0

CCSDS_OMM_VERS = 2.0
CREATION_DATE  = 
ORIGINATOR     = 

OBJECT_NAME    = SL-16 R/B
OBJECT_ID      = 1990-046B
CENTER_NAME    = EARTH
REF_FRAME      = TEME
TIME_SYSTEM    = UTC
MEAN_ELEMENT_THEORY = SGP/SGP4

EPOCH          = 2025-12-30T15:08:48.041376
MEAN_MOTION    = 14.14998244
ECCENTRICITY   = .0012532
INCLINATION    = 70.9993
RA_OF_ASC_NODE = 82.9491
ARG_OF_PERICENTER = 42.8436
MEAN_ANOMALY   = 317.3661

EPHEMERIS_TYPE = 0
CLASSIFICATION_TYPE = U
NORAD_CAT_ID   = 20625
ELEMENT_SET_NO = 999
REV_AT_EPOCH   = 83862
BSTAR          = .10287E-3
MEAN_MOTION_DOT = .152E-5
MEAN_MOTION_DDOT = 0

CCSDS_OMM_VERS = 2.0
CREATION_DATE  = 
ORIGINATOR     = 

OBJECT_NAME    = COSMOS 2084
OBJECT_ID      = 1990-055A
CENTER_NAME    = EARTH
REF_FRAME      = TEME
TIME_SYSTEM    = UTC
MEAN_ELEMENT_THEORY = SGP/SGP4

EPOCH          = 2025-12-30T18:32:32.456832
MEAN_MOTION    = 15.05134821
ECCENTRICITY   = .0028768
INCLINATION    = 62.7892
RA_OF_ASC_NODE = 210.5442
ARG_OF_PERICENTER = 177.2813
MEAN_ANOMALY   = 182.8449

EPHEMERIS_TYPE = 0
CLASSIFICATION_TYPE = U
NORAD_CAT_ID   = 20663
ELEMENT_SET_NO = 999
REV_AT_EPOCH   = 92594
BSTAR          = .3351E-3
MEAN_MOTION_DOT = .4637E-4
MEAN_MOTION_DDOT = 0

CCSDS_OMM_VERS = 2.0
CREATION_DATE  = 
ORIGINATOR     = 

OBJECT_NAME    = SL-6 R/B(2)
OBJECT_ID      = 1990-055D
CENTER_NAME    = EARTH
REF_FRAME      = TEME
TIME_SYSTEM    = UTC
MEAN_ELEMENT_THEORY = SGP/SGP4

EPOCH          = 2025-12-30T17:30:25.155648
MEAN_MOTION    = 15.03173633
ECCENTRICITY   = .0014867
INCLINATION    = 62.7833
RA_OF_ASC_NODE = 128.2849
ARG_OF_PERICENTER = 320.7725
MEAN_ANOMALY   = 39.2295

EPHEMERIS_TYPE = 0
CLASSIFICATION_TYPE = U
NORAD_CAT_ID   = 20666
ELEMENT_SET_NO = 999
REV_AT_EPOCH   = 92782
BSTAR          = .3254E-3
MEAN_MOTION_DOT = .4234E-4
MEAN_MOTION_DDOT = 0

CCSDS_OMM_VERS = 2.0
CREATION_DATE  = 
ORIGINATOR     = 

OBJECT_NAME    = SL-8 R/B
OBJECT_ID      = 1990-078B
CENTER_NAME    = EARTH
REF_FRAME      = TEME
TIME_SYSTEM    = UTC
MEAN_ELEMENT_THEORY = SGP/SGP4

EPOCH          = 2025-12-30T13:43:53.817024
MEAN_MOTION    = 14.86572002
ECCENTRICITY   = .0369595
INCLINATION    = 82.9056
RA_OF_ASC_NODE = 313.3411
ARG_OF_PERICENTER = 245.8340
MEAN_ANOMALY   = 110.3831

EPHEMERIS_TYPE = 0
CLASSIFICATION_TYPE = U
NORAD_CAT_ID   = 20775
ELEMENT_SET_NO = 999
REV_AT_EPOCH   = 79902
BSTAR          = .57579E-3
MEAN_MOTION_DOT = .1872E-3
MEAN_MOTION_DDOT = 0

CCSDS_OMM_VERS = 2.0
CREATION_DATE  = 
ORIGINATOR     = 

OBJECT_NAME    = SL-8 R/B
OBJECT_ID      = 1991-006B
CENTER_NAME    = EARTH
REF_FRAME      = TEME
TIME_SYSTEM    = UTC
MEAN_ELEMENT_THEORY = SGP/SGP4

EPOCH          = 2025-12-30T16:37:16.059072
MEAN_MOTION    = 13.77492821
ECCENTRICITY   = .002148
INCLINATION    = 82.9409
RA_OF_ASC_NODE = 221.3589
ARG_OF_PERICENTER = 226.5510
MEAN_ANOMALY   = 196.8326

EPHEMERIS_TYPE = 0
CLASSIFICATION_TYPE = U
NORAD_CAT_ID   = 21088
ELEMENT_SET_NO = 999
REV_AT_EPOCH   = 75457
BSTAR          = .48479E-4
MEAN_MOTION_DOT = .63E-6
MEAN_MOTION_DDOT = 0

CCSDS_OMM_VERS = 2.0
CREATION_DATE  = 
ORIGINATOR     = 

OBJECT_NAME    = OKEAN-3
OBJECT_ID      = 1991-039A
CENTER_NAME    = EARTH
REF_FRAME      = TEME
TIME_SYSTEM    = UTC
MEAN_ELEMENT_THEORY = SGP/SGP4

EPOCH          = 2025-12-30T13:50:52.874304
MEAN_MOTION    = 15.04236102
ECCENTRICITY   = .0013748
INCLINATION    = 82.5165
RA_OF_ASC_NODE = 43.7800
ARG_OF_PERICENTER = 198.7866
MEAN_ANOMALY   = 161.2855

EPHEMERIS_TYPE = 0
CLASSIFICATION_TYPE = U
NORAD_CAT_ID   = 21397
ELEMENT_SET_NO = 999
REV_AT_EPOCH   = 85464
BSTAR          = .34309E-3
MEAN_MOTION_DOT = .4805E-4
MEAN_MOTION_DDOT = 0

CCSDS_OMM_VERS = 2.0
CREATION_DATE  = 
ORIGINATOR     = 

OBJECT_NAME    = COSMOS 2151
OBJECT_ID      = 1991-042A
CENTER_NAME    = EARTH
REF_FRAME      = TEME
TIME_SYSTEM    = UTC
MEAN_ELEMENT_THEORY = SGP/SGP4

EPOCH          = 2025-12-30T20:06:41.130720
MEAN_MOTION    = 14.99770515
ECCENTRICITY   = .0011353
INCLINATION    = 82.4967
RA_OF_ASC_NODE = 150.0617
ARG_OF_PERICENTER = 294.4874
MEAN_ANOMALY   = 65.5166

EPHEMERIS_TYPE = 0
CLASSIFICATION_TYPE = U
NORAD_CAT_ID   = 21422
ELEMENT_SET_NO = 999
REV_AT_EPOCH   = 85287
BSTAR          = .29684E-3
MEAN_MOTION_DOT = .3698E-4
MEAN_MOTION_DDOT = 0

