DELTA 2 R/B(1)          
1 20453U 90008B   25364.83256278  .00063739  00000+0  96980-3 0  9994
2 20453  35.6063 263.5627 0107460 342.3476  17.3539 15.46917481915433
COSMOS 2058             
1 20465U 90010A   25364.77589911  .00007373  00000+0  44347-3 0  9998
2 20465  82.4715 115.2909 0009918 207.0538 153.0176 15.10665007931833
SL-14 R/B               
1 20466U 90010B   25364.35011908  .00000832  00000+0  97971-4 0  9994
2 20466  82.5028 332.5069 0020169 163.9553 196.2306 14.83490476918206
SL-14 R/B               
1 20511U 90018B   25364.77378676  .00000830  00000+0  10142-3 0  9999
2 20511  82.5220 287.5103 0015487 323.4447  36.5709 14.82068208912379
HST                     
1 20580U 90037B   25364.75133188  .00010169  00000+0  35028-3 0  9997
2 20580  28.4652 149.8672 0002619  74.6376 285.4508 15.28295938762753
SL-16 R/B               
1 20625U 90046B   25364.63111159  .00000152  00000+0  10287-3 0  9999
2 20625  70.9993  82.9491 0012532  42.8436 317.3661 14.14998244838627
COSMOS 2084             
1 20663U 90055A   25364.77259788  .00004637  00000+0  33510-3 0  9993
2 20663  62.7892 210.5442 0028768 177.2813 182.8449 15.05134821925946
SL-6 R/B(2)             
1 20666U 90055D   25364.72945782  .00004234  00000+0  32540-3 0  9992
2 20666  62.7833 128.2849 0014867 320.7725  39.2295 15.03173633927827
SL-8 R/B                
1 20775U 90078B   25364.57215066  .00018720  00000+0  57579-3 0  9990
2 20775  82.9056 313.3411 0369595 245.8340 110.3831 14.86572002799021
SL-8 R/B                
1 21088U 91006B   25364.69254698  .00000063  00000+0  48479-4 0  9998
2 21088  82.9409 221.3589 0021480 226.5510 196.8326 13.77492821754576
OKEAN-3                 
1 21397U 91039A   25364.57700086  .00004805  00000+0  34309-3 0  9995
2 21397  82.5165  43.7800 0013748 198.7866 161.2855 15.04236102854640
COSMOS 2151             
1 21422U 91042A   25364.83797605  .00003698  00000+0  29684-3 0  9999
2 21422  82.4967 150.0617 0011353 294.4874  65.5166 14.99770515852877
